IRIDIUM 159             
1 43578U 18061K   23292.88891344  .00000207  00000+0  66812-4 0  9991
2 43578  86.3915 102.6632 0002097  87.0906 273.0529 14.34219068274165
IRIDIUM 180             
1 43922U 19002A   23292.40003126  .00000030  00000+0  35501-5 0  9997
2 43922  86.4007  39.7142 0002336  95.8971 264.2491 14.34214720249704
IRIDIUM 176             
1 43923U 19002B   23292.35664134  .00002398  00000+0  37613-3 0  9997
2 43923  86.6133  39.7656 0002385  93.1046 267.0443 14.72273131256265
IRIDIUM 168             
1 43924U 19002C   23292.74253369  .00000586  00000+0  20216-3 0  9993
2 43924  86.4009  39.6208 0002314  93.5896 266.5565 14.34216403249737
IRIDIUM 173             
1 43925U 19002D   23292.38100573  .00000067  00000+0  17021-4 0  9997
2 43925  86.4004  39.7002 0002275  94.2443 265.9012 14.34214225249660
IRIDIUM 169             
1 43926U 19002E   23292.48853831  .00000839  00000+0  26784-3 0  9993
2 43926  86.4204  71.2727 0001836 345.6249  14.4897 14.38609247250528
IRIDIUM 172             
1 43927U 19002F   23292.37466075  .00000594  00000+0  20489-3 0  9996
2 43927  86.4004  39.7084 0002224  91.9539 268.1912 14.34220496249678
IRIDIUM 175             
1 43928U 19002G   23292.35051876  .00002418  00000+0  37934-3 0  9994
2 43928  86.1558  26.5887 0002249  93.3358 266.8116 14.72265762256257
